{
  "norad_id": 57945,
  "name": "STARLINK-30705",
  "history": [
    {
      "epoch": "2026-03-28T20:14:49.027200Z",
      "apogee_km": 476.2388986973856,
      "perigee_km": 474.27910157718634,
      "latitude_deg": -2.6767406044531358e-05,
      "longitude_deg": 165.44615138089492,
      "height_km": 476.10693229464295,
      "semi_major_axis_km": 6853.396000137286,
      "eccentricity": 0.00014298,
      "inclination_deg": 53.1601,
      "raan_deg": 295.4087,
      "arg_perigee_deg": 87.079,
      "mean_anomaly_deg": 273.0374,
      "mean_motion_rev_day": 15.30185287
    }
  ]
}