{"fetched_at":"2026-03-29T16:36:15Z","count":15609,"tles":[{"name":"STARLINK-30705","line1":"1 57945U 23148L   26087.84362300  .00006425  00000+0  22898-3 0  9995","line2":"2 57945  53.1601 295.4087 0001429  87.0790 273.0374 15.30185287141350","category":"Starlink"}]}